OBJECT_NAME,OBJECT_ID,EPOCH,MEAN_MOTION,ECCENTRICITY,INCLINATION,RA_OF_ASC_NODE,ARG_OF_PERICENTER,MEAN_ANOMALY,EPHEMERIS_TYPE,CLASSIFICATION_TYPE,NORAD_CAT_ID,ELEMENT_SET_NO,REV_AT_EPOCH,BSTAR,MEAN_MOTION_DOT,MEAN_MOTION_DDOT
CUBEBUG-2 (LO-74),2013-066AA,2026-06-25T20:06:56.471040,14.93829236,.0057564,97.8903,125.8528,0.5259,359.6011,0,U,39440,999,67828,.41819E-3,.4524E-4,0
FUNCUBE-1 (AO-73),2013-066AE,2026-06-26T04:54:04.434336,15.09588977,.0036563,97.8271,148.8384,170.3279,189.8662,0,U,39444,999,68102,.50781E-3,.8222E-4,0
UWE-3,2013-066AG,2026-06-25T20:06:32.092416,14.97092153,.0046808,97.8708,132.9703,291.8607,67.7640,0,U,39446,999,67887,.38106E-3,.4431E-4,0
UNISAT-6,2014-033C,2026-06-26T03:25:19.083072,14.88286575,.0045756,97.7883,329.6973,40.5030,319.9578,0,U,40012,999,64749,.27418E-3,.2527E-4,0
DUCHIFAT-1,2014-033M,2026-06-25T17:10:11.457696,15.66313669,.0001518,98.0450,237.0839,101.6443,258.4986,0,U,40021,999,65708,.13462E-2,.141113E-2,0
QB50P1,2014-033R,2026-06-25T23:32:54.168000,15.18384896,.0008708,98.0964,188.7440,184.1181,175.9981,0,U,40025,999,65436,.48855E-3,.9982E-4,0
LILACSAT-2,2015-049K,2026-06-26T04:08:05.373888,15.51729514,.0006357,97.4639,214.3561,205.1746,154.9197,0,U,40908,999,59714,.31483E-3,.1869E-3,0
FOX-1A (AO-85),2015-058D,2026-06-25T14:27:49.328064,14.91002790,.0130949,64.7749,252.8304,53.3196,307.9866,0,U,40967,999,11482,.21247E-3,.2302E-4,0
CAS-2T & KS-1Q,2016-066G,2026-06-26T04:12:10.920960,14.44722034,.0342903,98.3821,252.8088,102.3025,261.6774,0,U,41847,999,50609,.23266E-3,.1615E-4,0
RADFXSAT (FOX-1B),2017-073E,2026-06-25T14:36:06.350112,15.12826697,.014863,97.4699,43.6511,299.9037,58.7499,0,U,43017,999,46666,.35687E-3,.8156E-4,0
DIWATA-2B,2018-084H,2026-06-26T04:08:34.521792,15.00488746,.0013017,98.1205,13.7726,141.9692,218.2452,0,U,43678,999,41756,.184E-3,.2255E-4,0
ES'HAIL 2,2018-090A,2026-06-25T16:08:40.198272,1.00274106,.0002207,0.0185,341.0996,148.5722,52.1049,0,U,43700,999,2776,0,.155E-5,0
FOX-1CLIFF (AO-95),2018-099N,2026-06-25T15:55:09.564096,15.26877140,.0007199,97.4386,236.8787,324.2566,35.8190,0,U,43770,999,41451,.53097E-3,.13967E-3,0
ITASAT,2018-099AE,2026-06-26T02:40:57.048960,15.19159970,.0011232,97.4028,228.4453,327.0677,32.9856,0,U,43786,999,41426,.35672E-3,.7445E-4,0
JY1SAT (JO-97),2018-099AX,2026-06-26T02:22:32.608128,15.33922323,.0005005,97.4134,239.9649,222.4437,137.6419,0,U,43803,999,41499,.60135E-3,.19688E-3,0
UWE-4,2018-111E,2026-06-25T18:09:52.144128,15.46632165,.0004388,97.5842,105.5453,298.2824,61.7982,0,U,43880,999,41210,.81038E-3,.40469E-3,0
TIANYAN 01,2019-093C,2026-06-26T04:46:53.318208,14.86530159,.0014945,97.7532,249.2118,59.9834,300.2862,0,U,44881,999,35275,.41958E-4,.319E-5,0
RS-44 & BREEZE-KM R/B,2019-096E,2026-06-25T22:01:42.394656,12.79748985,.0218451,82.5225,333.9025,123.8343,238.3763,0,U,44909,999,30346,.29842E-4,.2E-6,0
SALSAT,2020-068K,2026-06-25T23:24:44.418240,15.29916367,.0007809,97.8851,180.5757,270.5499,89.4845,0,U,46495,999,31670,.30155E-3,.8659E-4,0
XW-3 (CAS-9),2021-131B,2026-06-26T03:33:50.634144,14.41365221,.0005363,98.4981,269.4898,75.6723,284.5061,0,U,50466,999,23640,.18632E-3,.559E-5,0
GREENCUBE (IO-117),2022-080E,2026-06-25T17:51:47.627136,6.42583224,.0008975,70.1444,295.2691,287.7502,72.2178,0,U,53109,999,9261,0,-.3E-7,0
UMKA 1 (RS40S),2023-091G,2026-06-26T04:09:51.728832,15.20916405,.0014297,97.5052,235.8361,89.9468,270.3405,0,U,57172,999,16537,.34324E-3,.7544E-4,0
CUBESX-HSE 3 (RS42S),2023-091N,2026-06-26T04:35:47.309856,15.31431857,.0011583,97.5094,242.8928,66.5819,293.6639,0,U,57178,999,16580,.52668E-3,.15956E-3,0
MONITOR-3 (RS58S),2023-091Q,2026-06-26T04:05:30.882048,15.28014174,.0012803,97.5087,240.6826,73.0465,287.2176,0,U,57180,999,16566,.43781E-3,.11923E-3,0
MONITOR-4 (RS57S),2023-091S,2026-06-26T03:34:38.218080,15.28098226,.0012794,97.5080,240.6328,73.3306,286.9337,0,U,57182,999,16566,.42269E-3,.11538E-3,0
MONITOR-2 (RS39S),2023-091U,2026-06-26T03:21:54.767808,15.18988558,.0012749,97.5074,235.3652,84.0631,276.2056,0,U,57184,999,16531,.25671E-3,.5312E-4,0
SVYATOBOR 1 (RS60S),2023-091X,2026-06-26T04:04:40.241280,15.26760677,.0010572,97.5093,241.0367,67.3905,292.8450,0,U,57187,999,16568,.39169E-3,.1025E-3,0
VIZARD-METEO (RS38S),2023-091Z,2026-06-26T00:09:35.493120,15.36290982,.0007628,97.5095,246.6695,50.4472,309.7445,0,U,57189,999,16604,.54951E-3,.19402E-3,0
POLYTECH-UNIVERSE 3 (RS46S),2023-091AB,2026-06-26T03:59:21.818400,15.19194617,.001708,97.5049,234.8953,98.4356,261.8815,0,U,57191,999,16531,.29716E-3,.6208E-4,0
UTMN 2 (RS27S),2023-091AP,2026-06-26T03:20:00.942720,15.32259314,.0008688,97.5090,244.4845,56.7092,303.4981,0,U,57203,999,16591,.49476E-3,.15362E-3,0
